OBJECT_NAME,OBJECT_ID,EPOCH,MEAN_MOTION,ECCENTRICITY,INCLINATION,RA_OF_ASC_NODE,ARG_OF_PERICENTER,MEAN_ANOMALY,EPHEMERIS_TYPE,CLASSIFICATION_TYPE,NORAD_CAT_ID,ELEMENT_SET_NO,REV_AT_EPOCH,BSTAR,MEAN_MOTION_DOT,MEAN_MOTION_DDOT
STARLINK-37736,2026-115R,2026-06-15T06:00:02.000160,15.64488407,.00016891,97.2875,183.6020,119.5795,66.6396,0,U,69226,999,438,-.312456E-1,-.2600753E-1,0
STARLINK-37737,2026-115S,2026-06-15T06:00:02.000160,15.66124979,.00018218,97.2837,183.6185,97.9319,130.0215,0,U,69227,999,440,-.28696818E-1,-.255767E-1,0
STARLINK-37618,2026-115T,2026-06-15T06:00:02.000160,15.49665173,.00022732,97.2841,183.5224,92.1401,267.3204,0,U,69228,999,438,-.15593142E-1,-.792646E-2,0
STARLINK-37679,2026-115U,2026-06-15T06:00:02.000160,15.51122512,.00016462,97.2841,183.5289,113.8288,259.1668,0,U,69229,999,438,-.51466671E-1,-.264145E-1,0
STARLINK-37746,2026-115V,2026-06-15T06:00:02.000160,15.49119306,.00008382,97.2843,183.5083,121.2064,207.3121,0,U,69230,999,438,.2788788E-3,.15069E-3,0
STARLINK-37557,2026-115W,2026-06-15T06:00:02.000160,15.49185658,.0001371,97.2838,183.4514,103.4437,86.2277,0,U,69231,999,438,.88692581E-4,.4736E-4,0
STARLINK-37745,2026-115X,2026-06-15T06:00:02.000160,15.67523700,.00017551,97.2837,183.6387,99.0590,174.9841,0,U,69232,999,438,-.2856626E-1,-.2675886E-1,0
STARLINK-37739,2026-115Y,2026-06-15T06:00:02.000160,15.50781680,.00011697,97.2839,183.5057,78.5388,236.7783,0,U,69233,999,438,-.16688008E-1,-.874532E-2,0
STARLINK-37755,2026-115Z,2026-06-15T05:25:27.209568,15.75252555,.00011951,97.2831,183.5563,87.9684,272.1718,0,U,69234,999,437,.13037886E-2,.199487E-2,0
TJS-24,2026-116A,2026-06-15T02:59:21.591744,1.00267128,.00003903,0.0124,16.6423,51.2705,330.6113,0,U,69235,999,20,0,0,0
STARLINK-37665,2026-117A,2026-06-15T05:22:18.729696,15.82015614,.00010224,53.1583,253.4786,94.3986,265.7154,0,U,69238,999,266,.52469031E-3,.109873E-2,0
STARLINK-37558,2026-117B,2026-06-15T05:20:56.545152,15.82037688,.00010296,53.1582,253.4709,74.6921,285.4216,0,U,69239,999,266,.80286814E-3,.169859E-2,0
STARLINK-37680,2026-117C,2026-06-15T05:18:52.164576,15.82043177,.00014136,53.1585,253.4619,58.6528,301.4633,0,U,69240,999,266,.87138115E-3,.184783E-2,0
STARLINK-37742,2026-117D,2026-06-15T05:16:17.973408,15.82037363,.00012667,53.1586,253.4505,62.1959,297.9192,0,U,69241,999,266,.83025953E-3,.175797E-2,0
STARLINK-37718,2026-117E,2026-06-15T05:14:31.421472,15.82041115,.00021164,53.1595,253.4458,32.3589,327.7564,0,U,69242,999,266,.10133554E-2,.215768E-2,0
STARLINK-37735,2026-117F,2026-06-14T23:10:28.730784,15.82158353,.00012316,53.1585,254.7097,64.2352,295.8799,0,U,69243,999,262,.90119025E-3,.192328E-2,0
STARLINK-37757,2026-117G,2026-06-15T05:10:55.297056,15.82030568,.00013348,53.1584,253.4246,55.9783,304.1367,0,U,69244,999,266,.72014814E-3,.151917E-2,0
STARLINK-37767,2026-117H,2026-06-15T05:04:46.680960,15.82035587,.00009896,53.1581,253.3950,81.2499,278.8636,0,U,69245,999,266,.72841988E-3,.153738E-2,0
STARLINK-35759,2026-117J,2026-06-15T06:34:45.836832,15.82038582,.00009318,53.1583,253.0735,56.1987,303.9124,0,U,69246,999,267,.81761975E-3,.173064E-2,0
STARLINK-37238,2026-117K,2026-06-15T06:28:22.213056,15.82024533,.00013549,53.1585,253.0424,36.4367,323.6748,0,U,69247,999,267,.66985436E-3,.141039E-2,0
STARLINK-37412,2026-117L,2026-06-15T06:23:30.712416,15.82088749,.00011307,53.1584,253.0197,43.4714,316.6398,0,U,69248,999,267,.86471847E-3,.183732E-2,0
STARLINK-37398,2026-117M,2026-06-15T06:27:47.063808,15.80925297,.00012175,53.1589,253.0393,43.1791,316.9327,0,U,69249,999,267,.91679857E-3,.184611E-2,0
STARLINK-37499,2026-117N,2026-06-15T06:21:02.653056,15.82017359,.00011699,53.1583,253.0075,43.4954,316.6161,0,U,69250,999,267,.74518373E-3,.157222E-2,0
STARLINK-37489,2026-117P,2026-06-15T06:18:30.722976,15.82037975,.00014028,53.1585,252.9966,48.8603,311.2542,0,U,69251,999,267,.94382281E-3,.200523E-2,0
STARLINK-37434,2026-117Q,2026-06-15T04:43:15.438144,15.82020787,.0000702,53.1579,253.2926,54.5419,305.5669,0,U,69252,999,266,.70700802E-3,.149013E-2,0
STARLINK-37368,2026-117R,2026-06-15T06:04:31.142208,15.82011025,.00013382,53.1582,252.9294,37.5853,322.5264,0,U,69253,999,267,.73301186E-3,.154549E-2,0
STARLINK-37517,2026-117S,2026-06-15T06:02:37.171968,15.82023493,.00010853,53.1580,252.9213,30.4762,329.6324,0,U,69254,999,267,.82474407E-3,.174485E-2,0
STARLINK-37378,2026-117T,2026-06-15T06:02:08.665152,15.82012527,.00016786,53.1582,252.9187,29.6633,330.4485,0,U,69255,999,267,.80052095E-3,.16915E-2,0
STARLINK-37396,2026-117U,2026-06-15T05:58:36.845184,15.82033368,.00011508,53.1578,252.9007,49.9971,310.1153,0,U,69256,999,267,.82165001E-3,.173896E-2,0
