STARLINK-37736          
1 69226U 26115R   26166.25002315 -.02600753  00000+0 -31246-1 0  9990
2 69226  97.2875 183.6020 0001689 119.5795  66.6396 15.64488407  4384
STARLINK-37737          
1 69227U 26115S   26166.25002315 -.02557670  00000+0 -28697-1 0  9996
2 69227  97.2837 183.6185 0001821  97.9319 130.0215 15.66124979  4406
STARLINK-37618          
1 69228U 26115T   26166.25002315 -.00792646  00000+0 -15593-1 0  9990
2 69228  97.2841 183.5224 0002273  92.1401 267.3204 15.49665173  4382
STARLINK-37679          
1 69229U 26115U   26166.25002315 -.02641450  00000+0 -51467-1 0  9999
2 69229  97.2841 183.5289 0001646 113.8288 259.1668 15.51122512  4382
STARLINK-37746          
1 69230U 26115V   26166.25002315  .00015069  00000+0  27888-3 0  9990
2 69230  97.2843 183.5083 0000838 121.2064 207.3121 15.49119306  4388
STARLINK-37557          
1 69231U 26115W   26166.25002315  .00004736  00000+0  88693-4 0  9992
2 69231  97.2838 183.4514 0001371 103.4437  86.2277 15.49185658  4389
STARLINK-37745          
1 69232U 26115X   26166.25002315 -.02675886  00000+0 -28566-1 0  9997
2 69232  97.2837 183.6387 0001755  99.0590 174.9841 15.67523700  4381
STARLINK-37739          
1 69233U 26115Y   26166.25002315 -.00874532  00000+0 -16688-1 0  9997
2 69233  97.2839 183.5057 0001169  78.5388 236.7783 15.50781680  4380
STARLINK-37755          
1 69234U 26115Z   26166.22600937  .00199487  00000+0  13038-2 0  9993
2 69234  97.2831 183.5563 0001195  87.9684 272.1718 15.75252555  4379
TJS-24                  
1 69235U 26116A   26166.12455546  .00000000  00000+0  00000+0 0  9992
2 69235   0.0124  16.6423 0000390  51.2705 330.6113  1.00267128   204
STARLINK-37665          
1 69238U 26117A   26166.22382789  .00109873  00000+0  52469-3 0  9993
2 69238  53.1583 253.4786 0001022  94.3986 265.7154 15.82015614  2661
STARLINK-37558          
1 69239U 26117B   26166.22287668  .00169859  00000+0  80287-3 0  9993
2 69239  53.1582 253.4709 0001029  74.6921 285.4216 15.82037688  2666
STARLINK-37680          
1 69240U 26117C   26166.22143709  .00184783  00000+0  87138-3 0  9997
2 69240  53.1585 253.4619 0001413  58.6528 301.4633 15.82043177  2665
STARLINK-37742          
1 69241U 26117D   26166.21965247  .00175797  00000+0  83026-3 0  9993
2 69241  53.1586 253.4505 0001266  62.1959 297.9192 15.82037363  2664
STARLINK-37718          
1 69242U 26117E   26166.21841923  .00215768  00000+0  10134-2 0  9990
2 69242  53.1595 253.4458 0002116  32.3589 327.7564 15.82041115  2660
STARLINK-37735          
1 69243U 26117F   26165.96561031  .00192328  00000+0  90119-3 0  9999
2 69243  53.1585 254.7097 0001231  64.2352 295.8799 15.82158353  2626
STARLINK-37757          
1 69244U 26117G   26166.21591779  .00151917  00000+0  72015-3 0  9995
2 69244  53.1584 253.4246 0001334  55.9783 304.1367 15.82030568  2663
STARLINK-37767          
1 69245U 26117H   26166.21165140  .00153738  00000+0  72842-3 0  9996
2 69245  53.1581 253.3950 0000989  81.2499 278.8636 15.82035587  2665
STARLINK-35759          
1 69246U 26117J   26166.27414163  .00173064  00000+0  81762-3 0  9990
2 69246  53.1583 253.0735 0000931  56.1987 303.9124 15.82038582  2677
STARLINK-37238          
1 69247U 26117K   26166.26970154  .00141039  00000+0  66985-3 0  9994
2 69247  53.1585 253.0424 0001354  36.4367 323.6748 15.82024533  2670
STARLINK-37412          
1 69248U 26117L   26166.26632769  .00183732  00000+0  86472-3 0  9991
2 69248  53.1584 253.0197 0001130  43.4714 316.6398 15.82088749  2675
STARLINK-37398          
1 69249U 26117M   26166.26929472  .00184611  00000+0  91680-3 0  9996
2 69249  53.1589 253.0393 0001217  43.1791 316.9327 15.80925297  2678
STARLINK-37499          
1 69250U 26117N   26166.26461404  .00157222  00000+0  74518-3 0  9993
2 69250  53.1583 253.0075 0001169  43.4954 316.6161 15.82017359  2677
STARLINK-37489          
1 69251U 26117P   26166.26285559  .00200523  00000+0  94382-3 0  9993
2 69251  53.1585 252.9966 0001402  48.8603 311.2542 15.82037975  2677
STARLINK-37434          
1 69252U 26117Q   26166.19670646  .00149013  00000+0  70701-3 0  9996
2 69252  53.1579 253.2926 0000702  54.5419 305.5669 15.82020787  2660
STARLINK-37368          
1 69253U 26117R   26166.25313822  .00154549  00000+0  73301-3 0  9993
2 69253  53.1582 252.9294 0001338  37.5853 322.5264 15.82011025  2674
STARLINK-37517          
1 69254U 26117S   26166.25181912  .00174485  00000+0  82474-3 0  9999
2 69254  53.1580 252.9213 0001085  30.4762 329.6324 15.82023493  2671
STARLINK-37378          
1 69255U 26117T   26166.25148918  .00169150  00000+0  80052-3 0  9992
2 69255  53.1582 252.9187 0001678  29.6633 330.4485 15.82012527  2673
STARLINK-37396          
1 69256U 26117U   26166.24903756  .00173896  00000+0  82165-3 0  9990
2 69256  53.1578 252.9007 0001150  49.9971 310.1153 15.82033368  2678
